NORAD_CAT_ID,OBJECT_NAME,OBJECT_TYPE,EPOCH,MEAN_MOTION,ECCENTRICITY,INCLINATION,RA_OF_ASC_NODE,ARG_OF_PERICENTER,MEAN_ANOMALY,BSTAR,MEAN_MOTION_DOT,MEAN_MOTION_DDOT,TLE_LINE0,TLE_LINE1,TLE_LINE2,SEMIMAJOR_AXIS,PERIOD,APOGEE,PERIGEE,DECAYED
53609.0,STARLINK-4660,PAYLOAD,2022-11-10 14:00:01,15.08864573,0.0001726,53.2146,293.7224,43.0821,124.4868,-0.0035492,-0.0005637,0.0,0 STARLINK-4660,1 53609U 22104X   22314.58334491 -.00056370  00000-0 -35492-2 0  9999,2 53609  53.2146 293.7224 0001726  43.0821 124.4868 15.08864573  1303,6917.805,95.436,540.864,538.476,0.0
53609.0,STARLINK-4660,PAYLOAD,2022-11-10 16:00:00,15.08857364,0.0001675,53.2149,293.3478,44.8949,215.5771,-0.003365,-0.0005347,0.0,0 STARLINK-4660,1 53609U 22104X   22314.66667824 -.00053470  00000-0 -33650-2 0  9999,2 53609  53.2149 293.3478 0001675  44.8949 215.5771 15.08857364 11560,6917.8269999999975,95.436,540.851,538.534,0.0
53609.0,STARLINK-4660,PAYLOAD,2022-11-10 22:00:00,15.08815054,0.0001685,53.215,292.2249,51.1844,127.988,0.0025118,0.00039887,0.0,0 STARLINK-4660,1 53609U 22104X   22314.91667824  .00039887  00000-0  25118-2 0  9991,2 53609  53.2150 292.2249 0001685  51.1844 127.9880 15.08815054  1300,6917.956999999999,95.439,540.987,538.656,0.0
53609.0,STARLINK-4660,PAYLOAD,2022-11-11 06:00:00,15.08844015,0.0001866,53.215,290.7303,46.0866,144.6686,-0.0012818,-0.00020633,0.0,0 STARLINK-4660,1 53609U 22104X   22315.25001157 -.00020633  00000-0 -12818-2 0  9994,2 53609  53.2150 290.7303 0001866  46.0866 144.6686 15.08844015 11650,6917.868,95.437,541.024,538.442,0.0
53609.0,STARLINK-4660,PAYLOAD,2022-11-11 14:00:01,15.08840996,0.0001742,53.2151,289.2331,44.4643,157.8742,-0.0017213,-0.00027579,0.0,0 STARLINK-4660,1 53609U 22104X   22315.58334491 -.00027579  00000-0 -17213-2 0  9990,2 53609  53.2151 289.2331 0001742  44.4643 157.8742 15.08840996  1307,6917.877,95.437,540.947,538.5369999999998,0.0
53609.0,STARLINK-4660,PAYLOAD,2022-11-11 22:00:00,15.08829948,0.0001656,53.2155,287.7358,51.3907,162.5326,0.0025003,0.00039718,0.0,0 STARLINK-4660,1 53609U 22104X   22315.91667824  .00039718  00000-0  25003-2 0  9998,2 53609  53.2155 287.7358 0001656  51.3907 162.5326 15.08829948  1302,6917.911,95.438,540.922,538.631,0.0
53609.0,STARLINK-4660,PAYLOAD,2022-11-12 06:00:00,15.08847672,0.0001831,53.2154,286.2411,45.7409,179.7862,0.0014545,0.00022941,0.0,0 STARLINK-4660,1 53609U 22104X   22316.25001157  .00022941  00000-0  14545-2 0  9996,2 53609  53.2154 286.2411 0001831  45.7409 179.7862 15.08847672 11809,6917.857,95.437,540.989,538.455,0.0
53609.0,STARLINK-4660,PAYLOAD,2022-11-12 14:00:01,15.0888423,0.0001701,53.2154,284.7438,45.9391,191.1999,-0.0038506,-0.00061125,0.0,0 STARLINK-4660,1 53609U 22104X   22316.58334491 -.00061125  00000-0 -38506-2 0  9994,2 53609  53.2154 284.7438 0001701  45.9391 191.1999 15.08884230  1303,6917.745,95.435,540.7869999999998,538.433,0.0
53609.0,STARLINK-4660,PAYLOAD,2022-11-12 22:00:00,15.08841132,0.0001624,53.2156,283.2467,52.7107,196.0484,0.00028386,4.233e-05,0.0,0 STARLINK-4660,1 53609U 22104X   22316.91667824  .00004233  00000-0  28386-3 0  9991,2 53609  53.2156 283.2467 0001624  52.7107 196.0484 15.08841132 11900,6917.877,95.437,540.865,538.618,0.0
53609.0,STARLINK-4660,PAYLOAD,2022-11-13 14:00:01,15.08836013,0.00017,53.2152,280.2547,48.4072,223.5242,-0.0034926,-0.0005543999999999,0.0,0 STARLINK-4660,1 53609U 22104X   22317.58334491 -.00055440  00000-0 -34926-2 0  9990,2 53609  53.2152 280.2547 0001700  48.4072 223.5242 15.08836013 12002,6917.893,95.438,540.934,538.582,0.0
53609.0,STARLINK-4660,PAYLOAD,2022-11-13 22:00:00,15.08808255,0.0001675,53.2153,278.7578,55.9354,227.5569,0.0016271,0.0002568,0.0,0 STARLINK-4660,1 53609U 22104X   22317.91667824  .00025680  00000-0  16271-2 0  9990,2 53609  53.2153 278.7578 0001675  55.9354 227.5569 15.08808255  1300,6917.977,95.44,541.001,538.684,0.0
53609.0,STARLINK-4660,PAYLOAD,2022-11-14 14:00:01,15.08845389,0.0001744,53.2152,275.7661,52.6128,254.0201,-0.00092509,-0.00014983,0.0,0 STARLINK-4660,1 53609U 22104X   22318.58334491 -.00014983  00000-0 -92509-3 0  9990,2 53609  53.2152 275.7661 0001744  52.6128 254.0201 15.08845389 12151,6917.864000000001,95.437,540.935,538.5219999999998,0.0
53609.0,STARLINK-4660,PAYLOAD,2022-11-14 22:00:00,15.08853186,0.0001653,53.2161,274.2701,56.8232,261.4,0.00085169,0.00013297,0.0,0 STARLINK-4660,1 53609U 22104X   22318.91667824  .00013297  00000-0  85169-3 0  9995,2 53609  53.2161 274.2701 0001653  56.8232 261.4000 15.08853186  1309,6917.84,95.437,540.849,538.562,0.0
53609.0,STARLINK-4660,PAYLOAD,2022-11-15 08:00:01,15.08815127,0.0001771999999999,53.2142,272.4003,48.8741,13.9347,0.0032229,0.00051344,0.0,0 STARLINK-4660,1 53609U 22104X   22319.33335648  .00051344  00000-0  32229-2 0  9991,2 53609  53.2142 272.4003 0001772  48.8741  13.9347 15.08815127 12276,6917.956,95.439,541.047,538.596,0.0
53609.0,STARLINK-4660,PAYLOAD,2022-11-15 14:00:01,15.088594199999998,0.0001636,53.2141,271.2766,51.2615,290.1691,-0.003508,-0.00055716,0.0,0 STARLINK-4660,1 53609U 22104X   22319.58334491 -.00055716  00000-0 -35080-2 0  9990,2 53609  53.2141 271.2766 0001636  51.2615 290.1691 15.08859420  1302,6917.821,95.436,540.818,538.554,0.0
53609.0,STARLINK-4660,PAYLOAD,2022-11-15 22:00:00,15.08833757,0.000158,53.2141,269.7799,55.8614,297.1606,0.00072023,0.00011191,0.0,0 STARLINK-4660,1 53609U 22104X   22319.91667824  .00011191  00000-0  72023-3 0  9992,2 53609  53.2141 269.7799 0001580  55.8614 297.1606 15.08833757 12363,6917.899,95.438,540.857,538.6709999999998,0.0
53609.0,STARLINK-4660,PAYLOAD,2022-11-16 14:00:01,15.08825786,0.0001734,53.2155,266.7889,53.3102,322.9682,0.0013373,0.00021051,0.0,0 STARLINK-4660,1 53609U 22104X   22320.58335648  .00021051  00000-0  13373-2 0  9991,2 53609  53.2155 266.7889 0001734  53.3102 322.9682 15.08825786  1307,6917.924,95.438,540.988,538.589,0.0
53609.0,STARLINK-4660,PAYLOAD,2022-11-16 20:00:01,15.08858268,0.0001681,53.2162,265.6666,57.8065,237.0905,-0.0013755999999999,-0.00022125,0.0,0 STARLINK-4660,1 53609U 22104X   22320.83334491 -.00022125  00000-0 -13756-2 0  9994,2 53609  53.2162 265.6666 0001681  57.8065 237.0905 15.08858268 12491,6917.825,95.436,540.852,538.5269999999998,0.0
53609.0,STARLINK-4660,PAYLOAD,2022-11-16 22:00:08,15.08867813,0.0001698,53.2165,265.2928,57.4525,330.7835,-0.0029136,-0.00046395,0.0,0 STARLINK-4660,1 53609U 22104X   22320.91675926 -.00046395  00000-0 -29136-2 0  9998,2 53609  53.2165 265.2928 0001698  57.4525 330.7835 15.08867813  1303,6917.795,95.436,540.835,538.486,0.0
53609.0,STARLINK-4660,PAYLOAD,2022-11-17 14:00:01,15.08848945,0.0001719,53.214,262.2976,52.0434,358.9423,-0.0017772,-0.00028468,0.0,0 STARLINK-4660,1 53609U 22104X   22321.58334491 -.00028468  00000-0 -17772-2 0  9995,2 53609  53.2140 262.2976 0001719  52.0434 358.9423 15.08848945  1300,6917.853,95.437,540.9069999999998,538.529,0.0
53609.0,STARLINK-4660,PAYLOAD,2022-11-17 22:00:00,15.08848121,0.0001796,53.2141,260.8012,55.6505,6.9214,-0.00019829,-3.443e-05,0.0,0 STARLINK-4660,1 53609U 22104X   22321.91667824 -.00003443  00000-0 -19829-3 0  9993,2 53609  53.2141 260.8012 0001796  55.6505   6.9214 15.08848121 12664,6917.856,95.437,540.9630000000002,538.4780000000002,0.0
53609.0,STARLINK-4660,PAYLOAD,2022-11-18 14:00:01,15.08828755,0.0001745,53.2145,257.808,51.9369,33.8472,0.00073673,0.00011453,0.0,0 STARLINK-4660,1 53609U 22104X   22322.58334491  .00011453  00000-0  73673-3 0  9993,2 53609  53.2145 257.8080 0001745  51.9369  33.8472 15.08828755  1305,6917.915,95.438,540.987,538.573,0.0
53609.0,STARLINK-4660,PAYLOAD,2022-11-18 22:00:00,15.0885859,0.0001785,53.2147,256.3116,53.9998,43.3647,-0.00087837,-0.00014247,0.0,0 STARLINK-4660,1 53609U 22104X   22322.91667824 -.00014247  00000-0 -87837-3 0  9992,2 53609  53.2147 256.3116 0001785  53.9998  43.3647 15.08858590  1305,6917.824000000001,95.436,540.923,538.4540000000002,0.0
53609.0,STARLINK-4660,PAYLOAD,2022-11-19 06:00:00,15.08830366,0.0001871,53.2147,254.8166,47.0718,61.9147,0.0012418,0.00019525,0.0,0 STARLINK-4660,1 53609U 22104X   22323.25001157  .00019525  00000-0  12418-2 0  9995,2 53609  53.2147 254.8166 0001871  47.0718  61.9147 15.08830366 12868,6917.91,95.438,541.069,538.48,0.0
53609.0,STARLINK-4660,PAYLOAD,2022-11-19 14:00:01,15.08841482,0.0001672,53.215,253.3184,50.1344,70.4474,-0.00064416,-0.00010526,0.0,0 STARLINK-4660,1 53609U 22104X   22323.58334491 -.00010526  00000-0 -64416-3 0  9991,2 53609  53.2150 253.3184 0001672  50.1344  70.4474 15.08841482  1301,6917.876,95.437,540.898,538.5840000000002,0.0
53609.0,STARLINK-4660,PAYLOAD,2022-11-19 22:00:00,15.08856054,0.0001836,53.2152,251.8222,54.7379,77.4353,-0.0026011,-0.00041465,0.0,0 STARLINK-4660,1 53609U 22104X   22323.91667824 -.00041465  00000-0 -26011-2 0  9991,2 53609  53.2152 251.8222 0001836  54.7379  77.4353 15.08856054  1303,6917.831,95.437,540.966,538.4259999999998,0.0
53609.0,STARLINK-4660,PAYLOAD,2022-11-20 06:00:00,15.08806166,0.0002002,53.215,250.3271,49.6943,94.08,0.0036609,0.00058405,0.0,0 STARLINK-4660,1 53609U 22104X   22324.25001157  .00058405  00000-0  36609-2 0  9994,2 53609  53.2150 250.3271 0002002  49.6943  94.0800 15.08806166 13017,6917.984,95.44,541.234,538.464,0.0
53609.0,STARLINK-4660,PAYLOAD,2022-11-20 14:00:01,15.08831112,0.0001819,53.2152,248.829,54.8173,100.5417,0.0012712,0.00019996,0.0,0 STARLINK-4660,1 53609U 22104X   22324.58334491  .00019996  00000-0  12712-2 0  9991,2 53609  53.2152 248.8290 0001819  54.8173 100.5417 15.08831112  1305,6917.908,95.438,541.031,538.514,0.0
53609.0,STARLINK-4660,PAYLOAD,2022-11-20 22:00:00,15.08861192,0.0001821,53.2154,247.333,55.7454,111.2045,-0.0033935,-0.00053924,0.0,0 STARLINK-4660,1 53609U 22104X   22324.91667824 -.00053924  00000-0 -33935-2 0  9998,2 53609  53.2154 247.3330 0001821  55.7454 111.2045 15.08861192 13110,6917.816,95.436,540.94,538.4209999999998,0.0
